{
  "type": "FeatureCollection",
  "features": [
    {
      "type": "Feature",
      "properties": {
        "norad_id": 66429,
        "name": "STARLINK-35533",
        "group": "last-30-days",
        "lat": -10.140719145250271,
        "lon": 54.81008276848173,
        "alt_km": 444.6895583791247,
        "timestamp": "2025-12-09T14:52:24.940565+00:00",
        "meta_object_name": "STARLINK-35533",
        "meta_object_id": "2025-259H",
        "meta_epoch": "2025-12-09T08:00:01.999872",
        "meta_mean_motion": 15.40744314,
        "meta_eccentricity": 0.00013646,
        "meta_inclination": 43.0008,
        "meta_ra_of_asc_node": 67.5265,
        "meta_arg_of_pericenter": 277.742,
        "meta_mean_anomaly": 277.0656,
        "meta_ephemeris_type": 0,
        "meta_classification_type": "U",
        "meta_norad_cat_id": 66429,
        "meta_element_set_no": 999,
        "meta_rev_at_epoch": 573,
        "meta_bstar": -0.002539841,
        "meta_mean_motion_dot": -0.00105104,
        "meta_mean_motion_ddot": 0,
        "tle_line1": "1 66429U 25259H   25343.33335648 -.00105104  00000+0 -25398-2 0  9993",
        "tle_line2": "2 66429  43.0008  67.5265 0001364 277.7420 277.0656 15.40744314  5739"
      },
      "geometry": {
        "type": "Point",
        "coordinates": [
          54.81008276848173,
          -10.140719145250271
        ]
      }
    },
    {
      "type": "Feature",
      "properties": {
        "norad_id": 66430,
        "name": "STARLINK-35470",
        "group": "last-30-days",
        "lat": -1.7323887319699027,
        "lon": 63.98663563810624,
        "alt_km": 443.81483331860727,
        "timestamp": "2025-12-09T14:52:24.940576+00:00",
        "meta_object_name": "STARLINK-35470",
        "meta_object_id": "2025-259J",
        "meta_epoch": "2025-12-09T08:00:01.999872",
        "meta_mean_motion": 15.40646552,
        "meta_eccentricity": 0.00017726,
        "meta_inclination": 43.0008,
        "meta_ra_of_asc_node": 67.4971,
        "meta_arg_of_pericenter": 280.2057,
        "meta_mean_anomaly": 287.079,
        "meta_ephemeris_type": 0,
        "meta_classification_type": "U",
        "meta_norad_cat_id": 66430,
        "meta_element_set_no": 999,
        "meta_rev_at_epoch": 573,
        "meta_bstar": 0.001146736,
        "meta_mean_motion_dot": 0.00047814,
        "meta_mean_motion_ddot": 0,
        "tle_line1": "1 66430U 25259J   25343.33335648  .00047814  00000+0  11467-2 0  9998",
        "tle_line2": "2 66430  43.0008  67.4971 0001772 280.2057 287.0790 15.40646552  5737"
      },
      "geometry": {
        "type": "Point",
        "coordinates": [
          63.98663563810624,
          -1.7323887319699027
        ]
      }
    },
    {
      "type": "Feature",
      "properties": {
        "norad_id": 66431,
        "name": "STARLINK-35439",
        "group": "last-30-days",
        "lat": 6.732717698029307,
        "lon": 73.0924867222474,
        "alt_km": 442.982891061738,
        "timestamp": "2025-12-09T14:52:24.940586+00:00",
        "meta_object_name": "STARLINK-35439",
        "meta_object_id": "2025-259K",
        "meta_epoch": "2025-12-09T08:00:01.999872",
        "meta_mean_motion": 15.40876704,
        "meta_eccentricity": 9.326e-05,
        "meta_inclination": 43.0007,
        "meta_ra_of_asc_node": 67.4655,
        "meta_arg_of_pericenter": 261.506,
        "meta_mean_anomaly": 318.0775,
        "meta_ephemeris_type": 0,
        "meta_classification_type": "U",
        "meta_norad_cat_id": 66431,
        "meta_element_set_no": 999,
        "meta_rev_at_epoch": 573,
        "meta_bstar": -0.0058602462,
        "meta_mean_motion_dot": -0.00238983,
        "meta_mean_motion_ddot": 0,
        "tle_line1": "1 66431U 25259K   25343.33335648 -.00238983  00000+0 -58602-2 0  9992",
        "tle_line2": "2 66431  43.0007  67.4655 0000932 261.5060 318.0775 15.40876704  5731"
      },
      "geometry": {
        "type": "Point",
        "coordinates": [
          73.0924867222474,
          6.732717698029307
        ]
      }
    },
    {
      "type": "Feature",
      "properties": {
        "norad_id": 66432,
        "name": "STARLINK-35446",
        "group": "last-30-days",
        "lat": 15.033980652123967,
        "lon": 82.53523449987502,
        "alt_km": 442.09617482291014,
        "timestamp": "2025-12-09T14:52:24.940597+00:00",
        "meta_object_name": "STARLINK-35446",
        "meta_object_id": "2025-259L",
        "meta_epoch": "2025-12-09T08:00:01.999872",
        "meta_mean_motion": 15.40730413,
        "meta_eccentricity": 0.00010177,
        "meta_inclination": 43.0005,
        "meta_ra_of_asc_node": 67.4344,
        "meta_arg_of_pericenter": 255.4573,
        "meta_mean_anomaly": 336.6828,
        "meta_ephemeris_type": 0,
        "meta_classification_type": "U",
        "meta_norad_cat_id": 66432,
        "meta_element_set_no": 999,
        "meta_rev_at_epoch": 573,
        "meta_bstar": -0.0017775285,
        "meta_mean_motion_dot": -0.00073912,
        "meta_mean_motion_ddot": 0,
        "tle_line1": "1 66432U 25259L   25343.33335648 -.00073912  00000+0 -17775-2 0  9998",
        "tle_line2": "2 66432  43.0005  67.4344 0001017 255.4573 336.6828 15.40730413  5732"
      },
      "geometry": {
        "type": "Point",
        "coordinates": [
          82.53523449987502,
          15.033980652123967
        ]
      }
    },
    {
      "type": "Feature",
      "properties": {
        "norad_id": 66433,
        "name": "STARLINK-35457",
        "group": "last-30-days",
        "lat": 22.891087118977964,
        "lon": 92.69767132755346,
        "alt_km": 440.9183285477002,
        "timestamp": "2025-12-09T14:52:24.940607+00:00",
        "meta_object_name": "STARLINK-35457",
        "meta_object_id": "2025-259M",
        "meta_epoch": "2025-12-09T08:00:01.999872",
        "meta_mean_motion": 15.40656295,
        "meta_eccentricity": 0.00010116,
        "meta_inclination": 43.0003,
        "meta_ra_of_asc_node": 67.4051,
        "meta_arg_of_pericenter": 261.5528,
        "meta_mean_anomaly": 343.0447,
        "meta_ephemeris_type": 0,
        "meta_classification_type": "U",
        "meta_norad_cat_id": 66433,
        "meta_element_set_no": 999,
        "meta_rev_at_epoch": 573,
        "meta_bstar": 0.001219005,
        "meta_mean_motion_dot": 0.00050883,
        "meta_mean_motion_ddot": 0,
        "tle_line1": "1 66433U 25259M   25343.33335648  .00050883  00000+0  12190-2 0  9995",
        "tle_line2": "2 66433  43.0003  67.4051 0001011 261.5528 343.0447 15.40656295  5732"
      },
      "geometry": {
        "type": "Point",
        "coordinates": [
          92.69767132755346,
          22.891087118977964
        ]
      }
    },
    {
      "type": "Feature",
      "properties": {
        "norad_id": 66434,
        "name": "STARLINK-35389",
        "group": "last-30-days",
        "lat": 30.03851434647176,
        "lon": 104.07884826834143,
        "alt_km": 439.7539754736208,
        "timestamp": "2025-12-09T14:52:24.940617+00:00",
        "meta_object_name": "STARLINK-35389",
        "meta_object_id": "2025-259N",
        "meta_epoch": "2025-12-09T08:00:01.999872",
        "meta_mean_motion": 15.40664467,
        "meta_eccentricity": 8.789e-05,
        "meta_inclination": 43.0005,
        "meta_ra_of_asc_node": 67.3751,
        "meta_arg_of_pericenter": 266.5218,
        "meta_mean_anomaly": 350.5159,
        "meta_ephemeris_type": 0,
        "meta_classification_type": "U",
        "meta_norad_cat_id": 66434,
        "meta_element_set_no": 999,
        "meta_rev_at_epoch": 573,
        "meta_bstar": 0.00091863539,
        "meta_mean_motion_dot": 0.00038217,
        "meta_mean_motion_ddot": 0,
        "tle_line1": "1 66434U 25259N   25343.33335648  .00038217  00000+0  91864-3 0  9999",
        "tle_line2": "2 66434  43.0005  67.3751 0000878 266.5218 350.5159 15.40664467  5735"
      },
      "geometry": {
        "type": "Point",
        "coordinates": [
          104.07884826834143,
          30.03851434647176
        ]
      }
    },
    {
      "type": "Feature",
      "properties": {
        "norad_id": 66435,
        "name": "STARLINK-35502",
        "group": "last-30-days",
        "lat": 36.06315608088011,
        "lon": 117.09117514954794,
        "alt_km": 438.8943416773236,
        "timestamp": "2025-12-09T14:52:24.940630+00:00",
        "meta_object_name": "STARLINK-35502",
        "meta_object_id": "2025-259P",
        "meta_epoch": "2025-12-09T08:00:01.999872",
        "meta_mean_motion": 15.40657484,
        "meta_eccentricity": 9.743e-05,
        "meta_inclination": 43,
        "meta_ra_of_asc_node": 67.3452,
        "meta_arg_of_pericenter": 273.309,
        "meta_mean_anomaly": 356.1869,
        "meta_ephemeris_type": 0,
        "meta_classification_type": "U",
        "meta_norad_cat_id": 66435,
        "meta_element_set_no": 999,
        "meta_rev_at_epoch": 573,
        "meta_bstar": 0.00094981699,
        "meta_mean_motion_dot": 0.00039522,
        "meta_mean_motion_ddot": 0,
        "tle_line1": "1 66435U 25259P   25343.33335648  .00039522  00000+0  94982-3 0  9994",
        "tle_line2": "2 66435  43.0000  67.3452 0000974 273.3090 356.1869 15.40657484  5731"
      },
      "geometry": {
        "type": "Point",
        "coordinates": [
          117.09117514954794,
          36.06315608088011
        ]
      }
    }
  ]
}